UMBRA-07                
1 58297U 23174AT  26196.74454472  .00005102  00000+0  32098-3 0  9991
2 58297  97.3779 251.4326 0002280  19.3190 340.8125 15.09626837147724
UMBRA-09                
1 60541U 24149CB  26196.79877919  .00011437  00000+0  55166-3 0  9998
2 60541  97.6974 284.5108 0002075 201.7624 158.3522 15.18864080105063
UMBRA-10                
1 60547U 24149CH  26196.79832415  .00009740  00000+0  47045-3 0  9997
2 60547  97.6981 284.5401 0001674 166.3022 193.8257 15.18861857105074
UMBRA-11                
1 66748U 25276CL  26196.75697041  .00013379  00000+0  49516-3 0  9996
2 66748  97.4190 271.2303 0002752 184.5674 175.5541 15.27795055 34856
UMBRA-12                
1 67371U 26004J   26196.92781881  .00002227  00000+0  23932-3 0  9998
2 67371  97.8022 195.3040 0007353  51.0460 309.1412 14.89535405 27586
